FLOCK 4G-21             
1 62651U 25009AU  26068.19487675  .00013648  00000+0  49619-3 0  9998
2 62651  97.4032 151.1274 0000465 329.5782  30.5431 15.28381075 63677
STARLINK-35598          
1 66509U 25263AA  26068.16207796  .00024841  00000+0  90980-3 0  9991
2 66509  43.0038 354.0684 0002071 272.3623  87.6991 15.27556739 18819
